STARLINK-11663 [DTC]    
1 63668U 25085E   25127.91668981  .00017348  00000+0  74572-4 0  9995
2 63668  43.0069 325.0446 0001640 259.7078  58.7108 15.84742859  2123
STARLINK-11595 [DTC]    
1 63669U 25085F   25128.25002315 -.00058002  00000+0 -24084-3 0  9993
2 63669  43.0069 322.9855 0001910 266.5860 158.0234 15.84779949  2819
STARLINK-11599 [DTC]    
1 63670U 25085G   25127.91668981 -.00021301  00000+0 -86660-4 0  9995
2 63670  43.0069 325.0332 0001537 228.4788  94.6740 15.84767608  2126
STARLINK-11603 [DTC]    
1 63671U 25085H   25127.91668981 -.00046234  00000+0 -19119-3 0  9992
2 63671  43.0069 325.0257 0001299 259.0406  66.9967 15.84788094  2120
STARLINK-11644 [DTC]    
1 63672U 25085J   25128.25002315 -.00058390  00000+0 -24250-3 0  9992
2 63672  43.0069 322.9666 0001433 266.1005 166.0294 15.84779800  2170
STARLINK-11634 [DTC]    
1 63673U 25085K   25128.25002315 -.00064425  00000+0 -26793-3 0  9993
2 63673  43.0061 322.9582 0001736 266.9993 167.8296 15.84783471  2169
STARLINK-11656 [DTC]    
1 63674U 25085L   25128.25002315 -.00071492  00000+0 -29769-3 0  9992
2 63674  43.0070 322.9523 0001847 238.9841 198.8905 15.84791590  2161
STARLINK-11655 [DTC]    
1 63675U 25085M   25128.25002315 -.00053568  00000+0 -22214-3 0  9995
2 63675  43.0061 322.9428 0001685 265.1646 175.9188 15.84780602  2173
STARLINK-11661 [DTC]    
1 63676U 25085N   25127.91668981  .00058829  00000+0  24617-3 0  9997
2 63676  43.0070 324.9902 0001729 240.7262  99.4858 15.84740816  2767
STARLINK-33816          
1 63677U 25085P   25127.91668981 -.01094249  00000+0 -56748-2 0  9996
2 63677  43.0070 324.9956 0001635 263.3572  74.2299 15.82401848  2136
STARLINK-33861          
1 63678U 25085Q   25127.91668981 -.01093094  00000+0 -56600-2 0  9991
2 63678  43.0067 324.9913 0001851 273.8884  65.3919 15.82429923  2020
STARLINK-33850          
1 63679U 25085R   25127.91668981 -.01105669  00000+0 -57282-2 0  9991
2 63679  43.0068 324.9862 0001792 273.8080  67.6018 15.82446047  2028
STARLINK-33887          
1 63680U 25085S   25127.91668981 -.01122654  00000+0 -58227-2 0  9996
2 63680  43.0069 324.9805 0001683 264.3241  79.3395 15.82460045  2089
STARLINK-33886          
1 63681U 25085T   25127.91668981 -.01131457  00000+0 -58700-2 0  9994
2 63681  43.0069 324.9751 0001708 260.6706  85.1455 15.82472784  2022
STARLINK-33840          
1 63682U 25085U   25127.91668981 -.01141740  00000+0 -59229-2 0  9998
2 63682  43.0067 324.9639 0001710 273.0708  76.9224 15.82496469  2027
STARLINK-33851          
1 63683U 25085V   25127.91668981 -.01137380  00000+0 -58983-2 0  9990
2 63683  43.0067 324.9699 0001570 263.0213  84.7135 15.82495650  2027
